[{"OBJECT_NAME":"SENTINEL-6A","OBJECT_ID":"2020-086A","EPOCH":"2026-02-01T11:13:20.784288","MEAN_MOTION":12.80929257,"ECCENTRICITY":0.00078898,"INCLINATION":66.0409,"RA_OF_ASC_NODE":56.9451,"ARG_OF_PERICENTER":270.2639,"MEAN_ANOMALY":89.7472,"EPHEMERIS_TYPE":0,"CLASSIFICATION_TYPE":"U","NORAD_CAT_ID":46984,"ELEMENT_SET_NO":999,"REV_AT_EPOCH":24294,"BSTAR":0.0001039211,"MEAN_MOTION_DOT":-3.7e-7,"MEAN_MOTION_DDOT":0},{"OBJECT_NAME":"GAOFEN-12 02","OBJECT_ID":"2021-026A","EPOCH":"2026-02-01T23:07:48.544320","MEAN_MOTION":14.80753328,"ECCENTRICITY":0.00013018,"INCLINATION":97.9887,"RA_OF_ASC_NODE":31.7357,"ARG_OF_PERICENTER":340.4937,"MEAN_ANOMALY":19.6225,"EPHEMERIS_TYPE":0,"CLASSIFICATION_TYPE":"U","NORAD_CAT_ID":48079,"ELEMENT_SET_NO":999,"REV_AT_EPOCH":26175,"BSTAR":8.0104248e-5,"MEAN_MOTION_DOT":5.64e-6,"MEAN_MOTION_DDOT":0},{"OBJECT_NAME":"PLEIADES NEO 3","OBJECT_ID":"2021-034A","EPOCH":"2026-02-01T23:39:17.271648","MEAN_MOTION":14.81674863,"ECCENTRICITY":0.00013144,"INCLINATION":97.8941,"RA_OF_ASC_NODE":109.6926,"ARG_OF_PERICENTER":89.3838,"MEAN_ANOMALY":270.7526,"EPHEMERIS_TYPE":0,"CLASSIFICATION_TYPE":"U","NORAD_CAT_ID":48268,"ELEMENT_SET_NO":999,"REV_AT_EPOCH":25763,"BSTAR":9.0231269e-5,"MEAN_MOTION_DOT":6.58e-6,"MEAN_MOTION_DDOT":0},{"OBJECT_NAME":"PLEIADES NEO 4","OBJECT_ID":"2021-073E","EPOCH":"2026-02-01T22:50:39.003648","MEAN_MOTION":14.8167173,"ECCENTRICITY":0.00012905,"INCLINATION":97.8943,"RA_OF_ASC_NODE":109.6551,"ARG_OF_PERICENTER":92.0444,"MEAN_ANOMALY":268.0917,"EPHEMERIS_TYPE":0,"CLASSIFICATION_TYPE":"U","NORAD_CAT_ID":49070,"ELEMENT_SET_NO":999,"REV_AT_EPOCH":24134,"BSTAR":5.007035e-6,"MEAN_MOTION_DOT":-1.3e-7,"MEAN_MOTION_DDOT":0},{"OBJECT_NAME":"LANDSAT 9","OBJECT_ID":"2021-088A","EPOCH":"2026-02-01T18:44:23.496000","MEAN_MOTION":14.57108148,"ECCENTRICITY":0.00012909,"INCLINATION":98.2013,"RA_OF_ASC_NODE":105.1325,"ARG_OF_PERICENTER":92.4749,"MEAN_ANOMALY":267.6597,"EPHEMERIS_TYPE":0,"CLASSIFICATION_TYPE":"U","NORAD_CAT_ID":49260,"ELEMENT_SET_NO":999,"REV_AT_EPOCH":23128,"BSTAR":9.0496331e-5,"MEAN_MOTION_DOT":3.63e-6,"MEAN_MOTION_DDOT":0},{"OBJECT_NAME":"CSG-2","OBJECT_ID":"2022-008A","EPOCH":"2026-02-01T23:55:00.607584","MEAN_MOTION":14.82158118,"ECCENTRICITY":0.00014502,"INCLINATION":97.8822,"RA_OF_ASC_NODE":218.5531,"ARG_OF_PERICENTER":79.2954,"MEAN_ANOMALY":280.8422,"EPHEMERIS_TYPE":0,"CLASSIFICATION_TYPE":"U","NORAD_CAT_ID":51444,"ELEMENT_SET_NO":999,"REV_AT_EPOCH":21656,"BSTAR":0.00010960599,"MEAN_MOTION_DOT":8.21e-6,"MEAN_MOTION_DDOT":0},{"OBJECT_NAME":"GAOFEN-12 03","OBJECT_ID":"2022-069A","EPOCH":"2026-02-01T21:28:50.915136","MEAN_MOTION":14.79761587,"ECCENTRICITY":8.103e-5,"INCLINATION":97.8464,"RA_OF_ASC_NODE":284.0594,"ARG_OF_PERICENTER":114.4154,"MEAN_ANOMALY":245.7142,"EPHEMERIS_TYPE":0,"CLASSIFICATION_TYPE":"U","NORAD_CAT_ID":52912,"ELEMENT_SET_NO":999,"REV_AT_EPOCH":19460,"BSTAR":0.00012725412,"MEAN_MOTION_DOT":9.06e-6,"MEAN_MOTION_DDOT":0},{"OBJECT_NAME":"SWOT","OBJECT_ID":"2022-173A","EPOCH":"2026-02-01T22:33:11.714688","MEAN_MOTION":14.00171639,"ECCENTRICITY":4.986e-5,"INCLINATION":77.6081,"RA_OF_ASC_NODE":217.8743,"ARG_OF_PERICENTER":3.753,"MEAN_ANOMALY":356.3625,"EPHEMERIS_TYPE":0,"CLASSIFICATION_TYPE":"U","NORAD_CAT_ID":54754,"ELEMENT_SET_NO":999,"REV_AT_EPOCH":16022,"BSTAR":1.0186459e-5,"MEAN_MOTION_DOT":1.2e-7,"MEAN_MOTION_DDOT":0},{"OBJECT_NAME":"GAOFEN-12 04","OBJECT_ID":"2023-123A","EPOCH":"2026-02-01T22:14:55.224384","MEAN_MOTION":14.79888412,"ECCENTRICITY":0.00015874,"INCLINATION":97.9135,"RA_OF_ASC_NODE":312.918,"ARG_OF_PERICENTER":91.7676,"MEAN_ANOMALY":268.3718,"EPHEMERIS_TYPE":0,"CLASSIFICATION_TYPE":"U","NORAD_CAT_ID":57654,"ELEMENT_SET_NO":999,"REV_AT_EPOCH":13262,"BSTAR":0.00019327437,"MEAN_MOTION_DOT":1.406e-5,"MEAN_MOTION_DDOT":0},{"OBJECT_NAME":"PARS 1","OBJECT_ID":"2024-039Q","EPOCH":"2026-02-01T22:41:09.409056","MEAN_MOTION":15.42414625,"ECCENTRICITY":0.00080664,"INCLINATION":97.4694,"RA_OF_ASC_NODE":10.0345,"ARG_OF_PERICENTER":236.6966,"MEAN_ANOMALY":123.3509,"EPHEMERIS_TYPE":0,"CLASSIFICATION_TYPE":"U","NORAD_CAT_ID":59065,"ELEMENT_SET_NO":999,"REV_AT_EPOCH":10777,"BSTAR":0.00028156847,"MEAN_MOTION_DOT":0.00012097,"MEAN_MOTION_DDOT":0},{"OBJECT_NAME":"RESURS-P 4","OBJECT_ID":"2024-061A","EPOCH":"2026-02-01T23:16:43.514112","MEAN_MOTION":15.32588156,"ECCENTRICITY":0.00029864,"INCLINATION":97.2608,"RA_OF_ASC_NODE":343.2859,"ARG_OF_PERICENTER":104.9372,"MEAN_ANOMALY":255.2201,"EPHEMERIS_TYPE":0,"CLASSIFICATION_TYPE":"U","NORAD_CAT_ID":59371,"ELEMENT_SET_NO":999,"REV_AT_EPOCH":10305,"BSTAR":0.00012305255,"MEAN_MOTION_DOT":3.796e-5,"MEAN_MOTION_DDOT":0},{"OBJECT_NAME":"LEGION 1","OBJECT_ID":"2024-081A","EPOCH":"2026-02-01T22:12:44.509824","MEAN_MOTION":15.17111703,"ECCENTRICITY":0.0006179,"INCLINATION":97.5142,"RA_OF_ASC_NODE":112.1297,"ARG_OF_PERICENTER":120.2869,"MEAN_ANOMALY":239.8976,"EPHEMERIS_TYPE":0,"CLASSIFICATION_TYPE":"U","NORAD_CAT_ID":59625,"ELEMENT_SET_NO":999,"REV_AT_EPOCH":9703,"BSTAR":0.00021031485,"MEAN_MOTION_DOT":4.103e-5,"MEAN_MOTION_DDOT":0},{"OBJECT_NAME":"LEGION 2","OBJECT_ID":"2024-081B","EPOCH":"2026-02-01T21:24:32.799456","MEAN_MOTION":15.17131429,"ECCENTRICITY":0.00082754,"INCLINATION":97.5145,"RA_OF_ASC_NODE":112.1873,"ARG_OF_PERICENTER":108.3217,"MEAN_ANOMALY":251.8917,"EPHEMERIS_TYPE":0,"CLASSIFICATION_TYPE":"U","NORAD_CAT_ID":59626,"ELEMENT_SET_NO":999,"REV_AT_EPOCH":9703,"BSTAR":0.00025526391,"MEAN_MOTION_DOT":4.999e-5,"MEAN_MOTION_DDOT":0},{"OBJECT_NAME":"ALOS-4 (DAICHI-4)","OBJECT_ID":"2024-123A","EPOCH":"2026-02-01T19:48:15.475968","MEAN_MOTION":14.79477563,"ECCENTRICITY":0.00014261,"INCLINATION":97.9224,"RA_OF_ASC_NODE":131.9413,"ARG_OF_PERICENTER":102.2341,"MEAN_ANOMALY":257.9031,"EPHEMERIS_TYPE":0,"CLASSIFICATION_TYPE":"U","NORAD_CAT_ID":60182,"ELEMENT_SET_NO":999,"REV_AT_EPOCH":8586,"BSTAR":0.00026596308,"MEAN_MOTION_DOT":1.936e-5,"MEAN_MOTION_DDOT":0},{"OBJECT_NAME":"LEGION 3","OBJECT_ID":"2024-146A","EPOCH":"2026-02-01T21:29:11.511168","MEAN_MOTION":15.15727558,"ECCENTRICITY":0.00112534,"INCLINATION":45.0021,"RA_OF_ASC_NODE":35.8552,"ARG_OF_PERICENTER":123.9022,"MEAN_ANOMALY":236.2929,"EPHEMERIS_TYPE":0,"CLASSIFICATION_TYPE":"U","NORAD_CAT_ID":60452,"ELEMENT_SET_NO":999,"REV_AT_EPOCH":8149,"BSTAR":0.00024397237,"MEAN_MOTION_DOT":4.472e-5,"MEAN_MOTION_DDOT":0},{"OBJECT_NAME":"LEGION 4","OBJECT_ID":"2024-146B","EPOCH":"2026-02-01T18:17:56.072256","MEAN_MOTION":15.1575361,"ECCENTRICITY":0.00124179,"INCLINATION":45.0028,"RA_OF_ASC_NODE":128.4211,"ARG_OF_PERICENTER":258.6356,"MEAN_ANOMALY":101.3127,"EPHEMERIS_TYPE":0,"CLASSIFICATION_TYPE":"U","NORAD_CAT_ID":60453,"ELEMENT_SET_NO":999,"REV_AT_EPOCH":8032,"BSTAR":0.00026671184,"MEAN_MOTION_DOT":4.92e-5,"MEAN_MOTION_DDOT":0},{"OBJECT_NAME":"SENTINEL-2C","OBJECT_ID":"2024-157A","EPOCH":"2026-02-01T22:16:00.152256","MEAN_MOTION":14.30810827,"ECCENTRICITY":0.00011244,"INCLINATION":98.5685,"RA_OF_ASC_NODE":109.6585,"ARG_OF_PERICENTER":78.0377,"MEAN_ANOMALY":282.0932,"EPHEMERIS_TYPE":0,"CLASSIFICATION_TYPE":"U","NORAD_CAT_ID":60989,"ELEMENT_SET_NO":999,"REV_AT_EPOCH":7364,"BSTAR":6.7889417e-5,"MEAN_MOTION_DOT":1.34e-6,"MEAN_MOTION_DDOT":0}]
