SENTINEL-6A             
1 46984U 20086A   26032.46760167 -.00000037  00000+0  10392-3 0  9995
2 46984  66.0409  56.9451 0007889 270.2639  89.7472 12.80929257242942
GAOFEN-12 02            
1 48079U 21026A   26032.96375630  .00000564  00000+0  80104-4 0  9992
2 48079  97.9887  31.7357 0001301 340.4937  19.6225 14.80753328261756
PLEIADES NEO 3          
1 48268U 21034A   26032.98561657  .00000658  00000+0  90231-4 0  9995
2 48268  97.8941 109.6926 0001314  89.3838 270.7526 14.81674863257639
PLEIADES NEO 4          
1 49070U 21073E   26032.95184032 -.00000013  00000+0  50070-5 0  9999
2 49070  97.8943 109.6551 0001290  92.0444 268.0917 14.81671730241349
LANDSAT 9               
1 49260U 21088A   26032.78082750  .00000363  00000+0  90496-4 0  9993
2 49260  98.2013 105.1325 0001290  92.4749 267.6597 14.57108148231287
CSG-2                   
1 51444U 22008A   26032.99653481  .00000821  00000+0  10961-3 0  9998
2 51444  97.8822 218.5531 0001450  79.2954 280.8422 14.82158118216562
GAOFEN-12 03            
1 52912U 22069A   26032.89503374  .00000906  00000+0  12725-3 0  9994
2 52912  97.8464 284.0594 0000810 114.4154 245.7142 14.79761587194600
SWOT                    
1 54754U 22173A   26032.93971892  .00000012  00000+0  10186-4 0  9993
2 54754  77.6081 217.8743 0000498   3.7530 356.3625 14.00171639160220
GAOFEN-12 04            
1 57654U 23123A   26032.92702806  .00001406  00000+0  19327-3 0  9990
2 57654  97.9135 312.9180 0001587  91.7676 268.3718 14.79888412132625
PARS 1                  
1 59065U 24039Q   26032.94524779  .00012097  00000+0  28157-3 0  9997
2 59065  97.4694  10.0345 0008066 236.6966 123.3509 15.42414625107776
RESURS-P 4              
1 59371U 24061A   26032.96994808  .00003796  00000+0  12305-3 0  9992
2 59371  97.2608 343.2859 0002986 104.9372 255.2201 15.32588156103054
LEGION 1                
1 59625U 24081A   26032.92551516  .00004103  00000+0  21031-3 0  9996
2 59625  97.5142 112.1297 0006179 120.2869 239.8976 15.17111703 97031
LEGION 2                
1 59626U 24081B   26032.89204629  .00004999  00000+0  25526-3 0  9999
2 59626  97.5145 112.1873 0008275 108.3217 251.8917 15.17131429 97034
ALOS-4 (DAICHI-4)       
1 60182U 24123A   26032.82517912  .00001936  00000+0  26596-3 0  9996
2 60182  97.9224 131.9413 0001426 102.2341 257.9031 14.79477563 85867
LEGION 3                
1 60452U 24146A   26032.89527212  .00004472  00000+0  24397-3 0  9997
2 60452  45.0021  35.8552 0011253 123.9022 236.2929 15.15727558 81491
LEGION 4                
1 60453U 24146B   26032.76245454  .00004920  00000+0  26671-3 0  9994
2 60453  45.0028 128.4211 0012417 258.6356 101.3127 15.15753610 80320
SENTINEL-2C             
1 60989U 24157A   26032.92777954  .00000134  00000+0  67889-4 0  9993
2 60989  98.5685 109.6585 0001124  78.0377 282.0932 14.30810827 73649
